IRIDIUM 155             
1 43573U 18061E   21143.98952123  .00000070  00000-0  17870-4 0  9992
2 43573  86.3945 109.9524 0001796  81.3227 278.8172 14.34215983148171
IRIDIUM 154             
1 43574U 18061F   21143.90072270  .00000087  00000-0  24091-4 0  9992
2 43574  86.3948 110.0349 0002517  84.3763 275.7719 14.34219154148204
IRIDIUM 163             
1 43575U 18061G   21143.95146715  .00000088  00000-0  24535-4 0  9998
2 43575  86.3946 109.9853 0002482  98.8439 261.3037 14.34216632148180
IRIDIUM 156             
1 43576U 18061H   21144.13540020  .00000063  00000-0  15441-4 0  9996
2 43576  86.3947 109.9135 0002063  94.0421 266.1011 14.34215769148195
IRIDIUM 164             
1 43577U 18061J   21143.90706876  .00000084  00000-0  22919-4 0  9995
2 43577  86.3946 110.0211 0002502  88.1657 271.9825 14.34217532148216
IRIDIUM 159             
1 43578U 18061K   21144.15443212  .00000077  00000-0  20257-4 0  9991
2 43578  86.3945 109.8934 0002445  85.6230 274.5245 14.34217138148216
IRIDIUM 180             
1 43922U 19002A   21144.22370208  .00000096  00000-0  27193-4 0  9999
2 43922  86.4002  46.6982 0003180  87.8708 272.2852 14.34218104123874
IRIDIUM 176             
1 43923U 19002B   21144.14598238  .00000227  00000-0  32113-4 0  9990
2 43923  86.6136  46.7628 0002534  84.2947 275.8559 14.72249893127059
IRIDIUM 168             
1 43924U 19002C   21144.21735589  .00000094  00000-0  26507-4 0  9993
2 43924  86.4005  46.7258 0002468  82.7199 277.4278 14.34219225123810
IRIDIUM 173             
1 43925U 19002D   21144.13489745  .00000096  00000-0  27095-4 0  9990
2 43925  86.4001  46.7244 0002396  84.7220 275.4249 14.34217837123799
IRIDIUM 169             
1 43926U 19002E   21143.86010903  .00000078  00000-0  19129-4 0  9995
2 43926  86.4232  78.4388 0003883 339.3348  20.7692 14.38606109124207
IRIDIUM 172             
1 43927U 19002F   21143.77971176  .00000090  00000-0  25241-4 0  9990
2 43927  86.4002  46.8750 0002493  84.8583 275.2897 14.34219624123744
IRIDIUM 175             
1 43928U 19002G   21143.86793654  .00000027  00000-0  34881-6 0  9996
2 43928  86.6121  46.7037 0002519  99.9035 260.2467 14.72250200127001
IRIDIUM 171             
1 43929U 19002H   21143.96999544  .00000095  00000-0  26740-4 0  9992
2 43929  86.4012  46.8963 0002443  82.0282 278.1191 14.34218201123765
IRIDIUM 170             
1 43930U 19002J   21143.67636378  .00000233  00000-0  32973-4 0  9994
2 43930  86.6134  46.9653 0002677  88.0306 272.1218 14.72247217126996
IRIDIUM 167             
1 43931U 19002K   21143.96367240  .00000093  00000-0  26107-4 0  9992
2 43931  86.4002  46.8043 0002957  85.6188 274.5345 14.34217516123769
